GLOBALSTAR M057         
1 25943U 99058A   25193.24885296 -.00000025  00000+0  61894-3 0  9996
2 25943  51.9988 277.0822 0002928  77.2820 282.8356 12.24825458170070
GLOBALSTAR M059         
1 25944U 99058B   25193.18028951 -.00000096  00000+0 -11561-3 0  9992
2 25944  52.0008 139.5582 0000956   1.2678 132.5786 11.99980310165799
GLOBALSTAR M056         
1 25945U 99058C   25192.80312770 -.00000115  00000+0 -32077-3 0  9993
2 25945  51.9952 141.9063 0000705 250.1519 121.3877 12.04781997165590
GLOBALSTAR M031         
1 25946U 99058D   25193.25980339 -.00000161  00000+0 -71067-3 0  9999
2 25946  51.9977  31.4894 0000740 193.8605 338.4479 12.16038366167837
GLOBALSTAR M039         
1 25961U 99062A   25193.18586896 -.00000094  00000+0  55273-4 0  9999
2 25961  51.9818 192.5755 0002708  41.9616 318.1457 12.62329881183402
GLOBALSTAR M034         
1 25962U 99062B   25193.06002611 -.00000069  00000+0  19387-3 0  9992
2 25962  51.9891 306.7341 0014627  90.0102  81.0671 11.79446638141317
GLOBALSTAR M029         
1 25963U 99062C   25193.03280295 -.00000072  00000+0  16992-3 0  9999
2 25963  51.9821  27.9725 0002697 148.4781  21.0158 11.99898277172156
GLOBALSTAR M061         
1 25964U 99062D   25193.19862725 -.00000094  00000+0 -22530-3 0  9991
2 25964  51.9784 130.7386 0006480  11.3134 128.6738 11.76776352124413
